[
  {
    "OBJECT_NAME": "STARLINK-30759",
    "OBJECT_ID": "23162E",
    "EPOCH": "2025-11-11T07:34:44.077152",
    "MEAN_MOTION": 15.02529023,
    "ECCENTRICITY": 0.0001343,
    "INCLINATION": 43.0056,
    "RA_OF_ASC_NODE": 56.2911,
    "ARG_OF_PERICENTER": 268.9935,
    "MEAN_ANOMALY": 91.0754,
    "EPHEMERIS_TYPE": 0,
    "CLASSIFICATION_TYPE": "U",
    "NORAD_CAT_ID": 58122,
    "ELEMENT_SET_NO": 999,
    "REV_AT_EPOCH": 11450,
    "BSTAR": 0.00024531,
    "MEAN_MOTION_DOT": 3.111e-05,
    "MEAN_MOTION_DDOT": 0.0,
    "TLE_LINE1": "1 58122U 23162E   25315.31578793  .00003111  00000+0  24531-3 0  9994",
    "TLE_LINE2": "2 58122  43.0056  56.2911 0001343 268.9935  91.0754 15.02529023114501",
    "COMMENT": "Grouped by shell and plane from TLE"
  },
  {
    "OBJECT_NAME": "STARLINK-30781",
    "OBJECT_ID": "23162F",
    "EPOCH": "2025-11-11T07:33:07.939008",
    "MEAN_MOTION": 15.02544812,
    "ECCENTRICITY": 0.000131,
    "INCLINATION": 43.0054,
    "RA_OF_ASC_NODE": 56.2799,
    "ARG_OF_PERICENTER": 280.941,
    "MEAN_ANOMALY": 79.1285,
    "EPHEMERIS_TYPE": 0,
    "CLASSIFICATION_TYPE": "U",
    "NORAD_CAT_ID": 58123,
    "ELEMENT_SET_NO": 999,
    "REV_AT_EPOCH": 11449,
    "BSTAR": 0.00013761,
    "MEAN_MOTION_DOT": 1.656e-05,
    "MEAN_MOTION_DDOT": 0.0,
    "TLE_LINE1": "1 58123U 23162F   25315.31467522  .00001656  00000+0  13761-3 0  9997",
    "TLE_LINE2": "2 58123  43.0054  56.2799 0001310 280.9410  79.1285 15.02544812114497",
    "COMMENT": "Grouped by shell and plane from TLE"
  },
  {
    "OBJECT_NAME": "STARLINK-30754",
    "OBJECT_ID": "23162G",
    "EPOCH": "2025-11-11T06:26:10.545504",
    "MEAN_MOTION": 15.02539629,
    "ECCENTRICITY": 0.0001126,
    "INCLINATION": 43.0049,
    "RA_OF_ASC_NODE": 56.7719,
    "ARG_OF_PERICENTER": 259.9662,
    "MEAN_ANOMALY": 100.1054,
    "EPHEMERIS_TYPE": 0,
    "CLASSIFICATION_TYPE": "U",
    "NORAD_CAT_ID": 58124,
    "ELEMENT_SET_NO": 999,
    "REV_AT_EPOCH": 10869,
    "BSTAR": 6.7079e-05,
    "MEAN_MOTION_DOT": 7.03e-06,
    "MEAN_MOTION_DDOT": 0.0,
    "TLE_LINE1": "1 58124U 23162G   25315.26817761  .00000703  00000+0  67079-4 0  9990",
    "TLE_LINE2": "2 58124  43.0049  56.7719 0001126 259.9662 100.1054 15.02539629108693",
    "COMMENT": "Grouped by shell and plane from TLE"
  },
  {
    "OBJECT_NAME": "STARLINK-30766",
    "OBJECT_ID": "23162H",
    "EPOCH": "2025-11-11T07:28:19.934112",
    "MEAN_MOTION": 15.02543455,
    "ECCENTRICITY": 0.0001417,
    "INCLINATION": 43.006,
    "RA_OF_ASC_NODE": 56.2557,
    "ARG_OF_PERICENTER": 269.4955,
    "MEAN_ANOMALY": 90.5725,
    "EPHEMERIS_TYPE": 0,
    "CLASSIFICATION_TYPE": "U",
    "NORAD_CAT_ID": 58125,
    "ELEMENT_SET_NO": 999,
    "REV_AT_EPOCH": 11449,
    "BSTAR": 0.00014827000000000002,
    "MEAN_MOTION_DOT": 1.8e-05,
    "MEAN_MOTION_DDOT": 0.0,
    "TLE_LINE1": "1 58125U 23162H   25315.31134183  .00001800  00000+0  14827-3 0  9998",
    "TLE_LINE2": "2 58125  43.0060  56.2557 0001417 269.4955  90.5725 15.02543455114490",
    "COMMENT": "Grouped by shell and plane from TLE"
  },
  {
    "OBJECT_NAME": "STARLINK-30767",
    "OBJECT_ID": "23162J",
    "EPOCH": "2025-11-11T07:23:32.461440",
    "MEAN_MOTION": 15.02544471,
    "ECCENTRICITY": 0.0001258,
    "INCLINATION": 43.0062,
    "RA_OF_ASC_NODE": 56.2314,
    "ARG_OF_PERICENTER": 273.3731,
    "MEAN_ANOMALY": 86.6967,
    "EPHEMERIS_TYPE": 0,
    "CLASSIFICATION_TYPE": "U",
    "NORAD_CAT_ID": 58126,
    "ELEMENT_SET_NO": 999,
    "REV_AT_EPOCH": 11449,
    "BSTAR": 0.00013061,
    "MEAN_MOTION_DOT": 1.561e-05,
    "MEAN_MOTION_DDOT": 0.0,
    "TLE_LINE1": "1 58126U 23162J   25315.30801460  .00001561  00000+0  13061-3 0  9990",
    "TLE_LINE2": "2 58126  43.0062  56.2314 0001258 273.3731  86.6967 15.02544471114496",
    "COMMENT": "Grouped by shell and plane from TLE"
  },
  {
    "OBJECT_NAME": "STARLINK-30790",
    "OBJECT_ID": "23162K",
    "EPOCH": "2025-11-11T07:17:56.397408",
    "MEAN_MOTION": 15.02758039,
    "ECCENTRICITY": 0.0001277,
    "INCLINATION": 43.0043,
    "RA_OF_ASC_NODE": 56.1977,
    "ARG_OF_PERICENTER": 274.1891,
    "MEAN_ANOMALY": 85.8806,
    "EPHEMERIS_TYPE": 0,
    "CLASSIFICATION_TYPE": "U",
    "NORAD_CAT_ID": 58127,
    "ELEMENT_SET_NO": 999,
    "REV_AT_EPOCH": 11449,
    "BSTAR": 0.0011194,
    "MEAN_MOTION_DOT": 0.0001504,
    "MEAN_MOTION_DDOT": 0.0,
    "TLE_LINE1": "1 58127U 23162K   25315.30412497  .00015040  00000+0  11194-2 0  9990",
    "TLE_LINE2": "2 58127  43.0043  56.1977 0001277 274.1891  85.8806 15.02758039114497",
    "COMMENT": "Grouped by shell and plane from TLE"
  },
  {
    "OBJECT_NAME": "STARLINK-30787",
    "OBJECT_ID": "23162L",
    "EPOCH": "2025-11-11T07:14:00.092544",
    "MEAN_MOTION": 15.0261967,
    "ECCENTRICITY": 0.0001552,
    "INCLINATION": 43.0034,
    "RA_OF_ASC_NODE": 56.1795,
    "ARG_OF_PERICENTER": 285.1615,
    "MEAN_ANOMALY": 74.9055,
    "EPHEMERIS_TYPE": 0,
    "CLASSIFICATION_TYPE": "U",
    "NORAD_CAT_ID": 58128,
    "ELEMENT_SET_NO": 999,
    "REV_AT_EPOCH": 11449,
    "BSTAR": 0.0,
    "MEAN_MOTION_DOT": -0.00019213,
    "MEAN_MOTION_DDOT": 0.0,
    "TLE_LINE1": "1 58128U 23162L   25315.30138996 -.00019213  00000+0 -14079-2 0  9993",
    "TLE_LINE2": "2 58128  43.0034  56.1795 0001552 285.1615  74.9055 15.02619670114490",
    "COMMENT": "Grouped by shell and plane from TLE"
  },
  {
    "OBJECT_NAME": "STARLINK-30756",
    "OBJECT_ID": "23162M",
    "EPOCH": "2025-11-11T06:21:23.150592",
    "MEAN_MOTION": 15.02537028,
    "ECCENTRICITY": 0.0001464,
    "INCLINATION": 43.0048,
    "RA_OF_ASC_NODE": 56.7472,
    "ARG_OF_PERICENTER": 268.0414,
    "MEAN_ANOMALY": 92.0261,
    "EPHEMERIS_TYPE": 0,
    "CLASSIFICATION_TYPE": "U",
    "NORAD_CAT_ID": 58129,
    "ELEMENT_SET_NO": 999,
    "REV_AT_EPOCH": 11448,
    "BSTAR": 0.00014209,
    "MEAN_MOTION_DOT": 1.716e-05,
    "MEAN_MOTION_DDOT": 0.0,
    "TLE_LINE1": "1 58129U 23162M   25315.26485128  .00001716  00000+0  14209-3 0  9994",
    "TLE_LINE2": "2 58129  43.0048  56.7472 0001464 268.0414  92.0261 15.02537028114488",
    "COMMENT": "Grouped by shell and plane from TLE"
  },
  {
    "OBJECT_NAME": "STARLINK-30783",
    "OBJECT_ID": "23162N",
    "EPOCH": "2025-11-11T07:09:10.008000",
    "MEAN_MOTION": 15.02548526,
    "ECCENTRICITY": 0.000127,
    "INCLINATION": 43.0053,
    "RA_OF_ASC_NODE": 56.1521,
    "ARG_OF_PERICENTER": 268.2479,
    "MEAN_ANOMALY": 91.8218,
    "EPHEMERIS_TYPE": 0,
    "CLASSIFICATION_TYPE": "U",
    "NORAD_CAT_ID": 58130,
    "ELEMENT_SET_NO": 999,
    "REV_AT_EPOCH": 11449,
    "BSTAR": 0.0,
    "MEAN_MOTION_DOT": -5.25e-06,
    "MEAN_MOTION_DDOT": 0.0,
    "TLE_LINE1": "1 58130U 23162N   25315.29803250 -.00000525  00000+0 -23782-4 0  9995",
    "TLE_LINE2": "2 58130  43.0053  56.1521 0001270 268.2479  91.8218 15.02548526114498",
    "COMMENT": "Grouped by shell and plane from TLE"
  },
  {
    "OBJECT_NAME": "STARLINK-30757",
    "OBJECT_ID": "23162P",
    "EPOCH": "2025-11-11T07:04:22.050624",
    "MEAN_MOTION": 15.02535352,
    "ECCENTRICITY": 8.38e-05,
    "INCLINATION": 43.0017,
    "RA_OF_ASC_NODE": 56.1212,
    "ARG_OF_PERICENTER": 249.8163,
    "MEAN_ANOMALY": 110.2589,
    "EPHEMERIS_TYPE": 0,
    "CLASSIFICATION_TYPE": "U",
    "NORAD_CAT_ID": 58131,
    "ELEMENT_SET_NO": 999,
    "REV_AT_EPOCH": 11449,
    "BSTAR": 5.6998000000000006e-05,
    "MEAN_MOTION_DOT": 5.67e-06,
    "MEAN_MOTION_DDOT": 0.0,
    "TLE_LINE1": "1 58131U 23162P   25315.29469966  .00000567  00000+0  56998-4 0  9997",
    "TLE_LINE2": "2 58131  43.0017  56.1212 0000838 249.8163 110.2589 15.02535352114490",
    "COMMENT": "Grouped by shell and plane from TLE"
  },
  {
    "OBJECT_NAME": "STARLINK-30770",
    "OBJECT_ID": "23162Q",
    "EPOCH": "2025-11-11T06:16:35.346144",
    "MEAN_MOTION": 15.02560016,
    "ECCENTRICITY": 0.0001053,
    "INCLINATION": 43.0017,
    "RA_OF_ASC_NODE": 56.7129,
    "ARG_OF_PERICENTER": 260.2492,
    "MEAN_ANOMALY": 99.8231,
    "EPHEMERIS_TYPE": 0,
    "CLASSIFICATION_TYPE": "U",
    "NORAD_CAT_ID": 58132,
    "ELEMENT_SET_NO": 999,
    "REV_AT_EPOCH": 11448,
    "BSTAR": 0.0,
    "MEAN_MOTION_DOT": -4.087e-05,
    "MEAN_MOTION_DDOT": 0.0,
    "TLE_LINE1": "1 58132U 23162Q   25315.26152021 -.00004087  00000+0 -28750-3 0  9993",
    "TLE_LINE2": "2 58132  43.0017  56.7129 0001053 260.2492  99.8231 15.02560016114486",
    "COMMENT": "Grouped by shell and plane from TLE"
  },
  {
    "OBJECT_NAME": "STARLINK-30758",
    "OBJECT_ID": "23162R",
    "EPOCH": "2025-11-11T07:02:45.877920",
    "MEAN_MOTION": 15.02541572,
    "ECCENTRICITY": 0.0001343,
    "INCLINATION": 43.0042,
    "RA_OF_ASC_NODE": 56.1192,
    "ARG_OF_PERICENTER": 270.8265,
    "MEAN_ANOMALY": 89.2424,
    "EPHEMERIS_TYPE": 0,
    "CLASSIFICATION_TYPE": "U",
    "NORAD_CAT_ID": 58133,
    "ELEMENT_SET_NO": 999,
    "REV_AT_EPOCH": 11449,
    "BSTAR": 0.00014283,
    "MEAN_MOTION_DOT": 1.726e-05,
    "MEAN_MOTION_DDOT": 0.0,
    "TLE_LINE1": "1 58133U 23162R   25315.29358655  .00001726  00000+0  14283-3 0  9999",
    "TLE_LINE2": "2 58133  43.0042  56.1192 0001343 270.8265  89.2424 15.02541572114490",
    "COMMENT": "Grouped by shell and plane from TLE"
  },
  {
    "OBJECT_NAME": "STARLINK-30761",
    "OBJECT_ID": "23162S",
    "EPOCH": "2025-11-11T06:11:47.308416",
    "MEAN_MOTION": 15.02536858,
    "ECCENTRICITY": 0.0001342,
    "INCLINATION": 43.0028,
    "RA_OF_ASC_NODE": 56.6983,
    "ARG_OF_PERICENTER": 278.926,
    "MEAN_ANOMALY": 81.1431,
    "EPHEMERIS_TYPE": 0,
    "CLASSIFICATION_TYPE": "U",
    "NORAD_CAT_ID": 58134,
    "ELEMENT_SET_NO": 999,
    "REV_AT_EPOCH": 11448,
    "BSTAR": 7.099800000000001e-05,
    "MEAN_MOTION_DOT": 7.56e-06,
    "MEAN_MOTION_DDOT": 0.0,
    "TLE_LINE1": "1 58134U 23162S   25315.25818644  .00000756  00000+0  70998-4 0  9993",
    "TLE_LINE2": "2 58134  43.0028  56.6983 0001342 278.9260  81.1431 15.02536858114480",
    "COMMENT": "Grouped by shell and plane from TLE"
  }
]